H1 CPF  1  SGF 2022  2 10  2  5411 larets    
H2  0304206 5557    27944 2022  2  9  0  0  0 2022  2 14 23 57  0   180 1 1  0 0 0
H9
10 0 59621   6120.00000  0   6915706.055    425652.790   1338349.754
10 0 59621   6300.00000  0   6550596.206    121563.896   2620694.876
10 0 59621   6480.00000  0   5938588.208   -174136.213   3806722.834
10 0 59621   6660.00000  0   5102639.086   -444483.280   4852962.427
10 0 59621   6840.00000  0   4074297.356   -674174.201   5721189.217
10 0 59621   7020.00000  0   2892429.197   -850333.899   6379808.955
10 0 59621   7200.00000  0   1601681.815   -963146.306   6804964.933
10 0 59621   7380.00000  0    250755.150  -1006327.964   6981350.707
10 0 59621   7560.00000  0  -1109454.076   -977426.251   6902710.402
10 0 59621   7740.00000  0  -2427762.849   -877932.823   6572023.970
10 0 59621   7920.00000  0  -3654608.057   -713208.971   6001387.334
10 0 59621   8100.00000  0  -4743899.405   -492227.163   5211594.492
10 0 59621   8280.00000  0  -5654764.324   -227139.484   4231417.533
10 0 59621   8460.00000  0  -6353113.305     67312.636   3096593.541
10 0 59621   8640.00000  0  -6812960.677    374524.612   1848549.152
10 0 59621   8820.00000  0  -7017446.056    676860.085    532897.165
10 0 59621   9000.00000  0  -6959497.931    956545.433   -802247.766
10 0 59621   9180.00000  0  -6642096.196   1196583.626  -2108063.051
10 0 59621   9360.00000  0  -6078121.888   1381638.920  -3336837.620
10 0 59621   9540.00000  0  -5289804.215   1498849.392  -4443745.541
10 0 59621   9720.00000  0  -4307787.036   1538520.694  -5388488.328
10 0 59621   9900.00000  0  -3169879.930   1494669.946  -6136738.474
10 0 59621  10080.00000  0  -1919561.631   1365396.130  -6661342.929
10 0 59621  10260.00000  0   -604299.790   1153064.413  -6943258.130
10 0 59621  10440.00000  0    726244.099    864298.872  -6972194.280
10 0 59621  10620.00000  0   2022061.103    509784.959  -6746973.343
10 0 59621  10800.00000  0   3234652.353    103884.234  -6275592.308
10 0 59621  10980.00000  0   4318835.401   -335928.198  -5574976.842
10 0 59621  11160.00000  0   5234439.951   -789787.597  -4670431.627
10 0 59621  11340.00000  0   5947842.689  -1236301.893  -3594791.884
10 0 59621  11520.00000  0   6433274.246  -1653521.115  -2387278.699
10 0 59621  11700.00000  0   6673832.352  -2019972.178  -1092087.650
10 0 59621  11880.00000  0   6662143.481  -2315708.004    243244.941
10 0 59621  12060.00000  0   6400630.183  -2523315.032   1569632.721
10 0 59621  12240.00000  0   5901361.148  -2628823.731   2838309.359
10 0 59621  12420.00000  0   5185486.949  -2622471.206   4002686.616
10 0 59621  12600.00000  0   4282295.134  -2499272.839   5020108.437
10 0 59621  12780.00000  0   3227949.427  -2259378.304   5853425.839
10 0 59621  12960.00000  0   2063974.898  -1908198.657   6472337.494
10 0 59621  13140.00000  0    835570.966  -1456299.999   6854446.227
10 0 59621  13320.00000  0   -410171.010   -919075.365   6986014.898
10 0 59621  13500.00000  0  -1626075.859   -316207.535   6862409.841
10 0 59621  13680.00000  0  -2766656.072    329056.151   6488234.788
10 0 59621  13860.00000  0  -3789796.751    990794.961   5877159.982
10 0 59621  14040.00000  0  -4658307.361   1641443.115   5051448.621
10 0 59621  14220.00000  0  -5341290.950   2252922.463   4041183.800
10 0 59621  14400.00000  0  -5815275.874   2797839.288   2883207.543
10 0 59621  14580.00000  0  -6065061.067   3250693.737   1619801.989
10 0 59621  14760.00000  0  -6084239.595   3589049.004    297150.279
10 0 59621  14940.00000  0  -5875363.347   3794599.833  -1036372.761
10 0 59621  15120.00000  0  -5449738.287   3854082.228  -2332003.783
10 0 59621  15300.00000  0  -4826857.278   3759978.043  -3542414.461
10 0 59621  15480.00000  0  -4033496.382   3510973.568  -4623466.511
10 0 59621  15660.00000  0  -3102532.811   3112153.944  -5535819.154
10 0 59621  15840.00000  0  -2071553.690   2574930.926  -6246330.946
10 0 59621  16020.00000  0   -981322.210   1916713.009  -6729220.110
10 0 59621  16200.00000  0    125836.351   1160331.135  -6966949.011
10 0 59621  16380.00000  0   1207660.050    333247.880  -6950820.648
10 0 59621  16560.00000  0   2223541.638   -533425.868  -6681285.868
10 0 59621  16740.00000  0   3136038.102  -1406082.194  -6167946.471
10 0 59621  16920.00000  0   3912249.398  -2249898.093  -5429256.192
10 0 59621  17100.00000  0   4525028.168  -3030213.623  -4491921.476
10 0 59621  17280.00000  0   4953973.693  -3713962.999  -3389995.779
10 0 59621  17460.00000  0   5186163.823  -4271092.588  -2163686.439
10 0 59621  17640.00000  0   5216591.647  -4675903.903   -857901.554
10 0 59621  17820.00000  0   5048272.746  -4908252.186    479416.649
10 0 59621  18000.00000  0   4692006.684  -4954532.821   1799104.757
10 0 59621  18180.00000  0   4165800.893  -4808392.926   3052653.066
10 0 59621  18360.00000  0   3493989.473  -4471131.392   4194048.459
10 0 59621  18540.00000  0   2706097.588  -3951769.335   5181502.524
10 0 59621  18720.00000  0   1835515.642  -3266790.043   5978989.157
10 0 59621  18900.00000  0    918055.149  -2439570.072   6557535.774
10 0 59621  19080.00000  0     -9544.625  -1499534.603   6896227.171
10 0 59621  19260.00000  0   -911091.024   -481080.148   6982905.174
10 0 59621  19440.00000  0  -1752339.431    577697.001   6814560.838
10 0 59621  19620.00000  0  -2502280.057   1636423.139   6397415.663
10 0 59621  19800.00000  0  -3134270.601   2653974.737   5746694.662
10 0 59621  19980.00000  0  -3626981.812   3590065.655   4886098.683
10 0 59621  20160.00000  0  -3965128.491   4406843.158   3846981.145
10 0 59621  20340.00000  0  -4139956.066   5070433.995   2667242.792
10 0 59621  20520.00000  0  -4149458.660   5552373.685   1389968.822
10 0 59621  20700.00000  0  -3998315.116   5830846.634     61854.296
10 0 59621  20880.00000  0  -3697548.333   5891679.029  -1268523.116
10 0 59621  21060.00000  0  -3263915.177   5729025.957  -2552521.458
10 0 59621  21240.00000  0  -2719053.777   5345708.029  -3743251.868
10 0 59621  21420.00000  0  -2088442.276   4753188.225  -4797308.959
10 0 59621  21600.00000  0  -1400228.134   3971196.234  -5676344.235
10 0 59621  21780.00000  0   -683987.639   3027032.674  -6348429.051
10 0 59621  21960.00000  0     30530.906   1954581.891  -6789172.321
10 0 59621  22140.00000  0    714625.527    793078.294  -6982556.173
10 0 59621  22320.00000  0   1341774.161   -414322.972  -6921483.806
10 0 59621  22500.00000  0   1888649.644  -1622130.211  -6608029.226
10 0 59621  22680.00000  0   2335980.969  -2784203.157  -6053384.728
10 0 59621  22860.00000  0   2669239.899  -3855498.141  -5277512.899
10 0 59621  23040.00000  0   2879130.631  -4793827.231  -4308492.326
10 0 59621  23220.00000  0   2961857.225  -5561552.262  -3181556.217
10 0 59621  23400.00000  0   2919157.201  -6127150.882  -1937854.693
10 0 59621  23580.00000  0   2758096.321  -6466580.277   -622960.542
10 0 59621  23760.00000  0   2490625.289  -6564358.242    714831.162
10 0 59621  23940.00000  0   2132915.198  -6414292.482   2026333.689
10 0 59621  24120.00000  0   1704508.558  -6019817.475   3263345.895
10 0 59621  24300.00000  0   1227329.969  -5393914.068   4380482.493
10 0 59621  24480.00000  0    724614.034  -4558629.187   5336869.420
10 0 59621  24660.00000  0    219807.987  -3544228.892   6097642.111
10 0 59621  24840.00000  0   -264495.983  -2388024.297   6635188.060
10 0 59621  25020.00000  0   -707547.022  -1132941.940   6930093.755
10 0 59621  25200.00000  0  -1091302.334    174095.429   6971792.389
10 0 59621  25380.00000  0  -1401146.088   1483929.377   6758904.401
10 0 59621  25560.00000  0  -1626436.303   2747005.789   6299263.839
10 0 59621  25740.00000  0  -1760864.439   3915236.221   5609637.235
10 0 59621  25920.00000  0  -1802618.233   4943824.542   4715141.405
10 0 59621  26100.00000  0  -1754343.841   5793001.282   3648369.456
10 0 59621  26280.00000  0  -1622908.207   6429596.873   2448237.031
10 0 59621  26460.00000  0  -1418972.682   6828384.118   1158580.186
10 0 59621  26640.00000  0  -1156389.767   6973124.669   -173451.161
10 0 59621  26820.00000  0   -851453.204   6857262.947  -1499141.272
10 0 59621  27000.00000  0   -522039.079   6484223.699  -2770033.094
10 0 59621  27180.00000  0   -186686.134   5867286.030  -3939733.238
10 0 59621  27360.00000  0    136334.877   5029063.704  -4965615.486
10 0 59621  27540.00000  0    429920.231   4000621.918  -5810364.746
10 0 59621  27720.00000  0    678957.585   2820274.102  -6443304.081
10 0 59621  27900.00000  0    871035.754   1532116.836  -6841462.309
10 0 59621  28080.00000  0    997012.598    184372.288  -6990358.956
10 0 59621  28260.00000  0   1051421.032  -1172404.587  -6884499.944
10 0 59621  28440.00000  0   1032698.815  -2487197.801  -6527571.943
10 0 59621  28620.00000  0    943237.087  -3710420.508  -5932340.131
10 0 59621  28800.00000  0    789243.935  -4795783.258  -5120248.638
10 0 59621  28980.00000  0    580425.527  -5702072.728  -4120709.753
10 0 59621  29160.00000  0    329494.531  -6394773.931  -2970096.663
10 0 59621  29340.00000  0     51522.622  -6847464.575  -1710453.890
10 0 59621  29520.00000  0   -236834.294  -7042909.953   -387961.693
10 0 59621  29700.00000  0   -518202.146  -6973789.180    948792.757
10 0 59621  29880.00000  0   -775401.121  -6643007.288   2250657.620
10 0 59621  30060.00000  0   -992354.773  -6063573.594   3469791.620
10 0 59621  30240.00000  0  -1154943.054  -5258044.710   4561481.080
10 0 59621  30420.00000  0  -1251755.726  -4257572.262   5485805.601
10 0 59621  30600.00000  0  -1274709.263  -3100620.621   6209093.186
10 0 59621  30780.00000  0  -1219498.069  -1831414.135   6705113.962
10 0 59621  30960.00000  0  -1085860.923   -498200.224   6955974.669
10 0 59621  31140.00000  0   -877661.143    848601.521   6952712.414
10 0 59621  31320.00000  0   -602775.424   2158302.986   6695578.062
10 0 59621  31500.00000  0   -272791.447   3381842.147   6194009.112
99
